start=new Date('2022-05-23T00:00:00.000Z').valueOf();
sats=[{"INCLINATION":"53.0547","EPOCH":"2022-05-22T19:21:39.718080","ARG_OF_PERICENTER":"59.4968","MEAN_ELEMENT_THEORY":"SGP4","LAUNCH_DATE":"2020-04-22","OBJECT_TYPE":"PAYLOAD","ECCENTRICITY":"0.00018060","PERIOD":"95.593","MEAN_MOTION_DDOT":"0.0000000000000","RA_OF_ASC_NODE":"182.5847","EPHEMERIS_TYPE":"0","RCS_SIZE":"LARGE","MEAN_MOTION_DOT":"0.00000813","FILE":"3458743","REV_AT_EPOCH":"11587","TLE_LINE2":"2 45584  53.0547 182.5847 0001806  59.4968 300.6199 15.06393297115878","COUNTRY_CODE":"US","REF_FRAME":"TEME","PERIAPSIS":"545.983","CLASSIFICATION_TYPE":"U","APOAPSIS":"548.485","DECAY_DATE":null,"BSTAR":"0.00007347200000","MEAN_ANOMALY":"300.6199","OBJECT_NAME":"STARLINK-1343","SEMIMAJOR_AXIS":"6925.369","ELEMENT_SET_NO":"999","NORAD_CAT_ID":"45584","TIME_SYSTEM":"UTC","MEAN_MOTION":"15.06393297","SITE":"AFETR","TLE_LINE1":"1 45584U 20025BF  22142.80670970  .00000813  00000-0  73472-4 0  9992","GP_ID":"204246011","CENTER_NAME":"EARTH","OBJECT_ID":"2020-025BF"},{"INCLINATION":"53.0542","EPOCH":"2022-05-22T19:53:30.671808","ARG_OF_PERICENTER":"52.2908","MEAN_ELEMENT_THEORY":"SGP4","PERIOD":"95.592","MEAN_MOTION_DDOT":"0.0000000000000","ECCENTRICITY":"0.00019250","OBJECT_TYPE":"PAYLOAD","LAUNCH_DATE":"2020-04-22","EPHEMERIS_TYPE":"0","RA_OF_ASC_NODE":"182.4897","TLE_LINE2":"2 45586  53.0542 182.4897 0001925  52.2908 307.8255 15.06396498115863","COUNTRY_CODE":"US","FILE":"3458743","MEAN_MOTION_DOT":"-0.00000305","REV_AT_EPOCH":"11586","RCS_SIZE":"LARGE","PERIAPSIS":"545.891","REF_FRAME":"TEME","CLASSIFICATION_TYPE":"U","OBJECT_NAME":"STARLINK-1347","MEAN_ANOMALY":"307.8255","BSTAR":"-0.00000154000000","DECAY_DATE":null,"APOAPSIS":"548.557","ELEMENT_SET_NO":"999","SEMIMAJOR_AXIS":"6925.359","TIME_SYSTEM":"UTC","NORAD_CAT_ID":"45586","MEAN_MOTION":"15.06396498","TLE_LINE1":"1 45586U 20025BH  22142.82882722 -.00000305  00000-0 -15400-5 0  9992","SITE":"AFETR","CENTER_NAME":"EARTH","GP_ID":"204246365","OBJECT_ID":"2020-025BH"},{"TLE_LINE1":"1 45587U 20025BJ  22142.79933359  .00001349  00000-0  10946-3 0  9997","SITE":"AFETR","OBJECT_ID":"2020-025BJ","CENTER_NAME":"EARTH","GP_ID":"204279008","ELEMENT_SET_NO":"999","SEMIMAJOR_AXIS":"6925.358","MEAN_ANOMALY":"307.7441","OBJECT_NAME":"STARLINK-1349","DECAY_DATE":null,"APOAPSIS":"548.502","BSTAR":"0.00010946000000","MEAN_MOTION":"15.06396902","TIME_SYSTEM":"UTC","NORAD_CAT_ID":"45587","COUNTRY_CODE":"US","TLE_LINE2":"2 45587  53.0547 182.6099 0001847  52.3715 307.7441 15.06396902116479","FILE":"3459268","REV_AT_EPOCH":"11647","MEAN_MOTION_DOT":"0.00001349","RCS_SIZE":"LARGE","EPHEMERIS_TYPE":"0","RA_OF_ASC_NODE":"182.6099","CLASSIFICATION_TYPE":"U","REF_FRAME":"TEME","PERIAPSIS":"545.944","ARG_OF_PERICENTER":"52.3715","EPOCH":"2022-05-22T19:11:02.422176","INCLINATION":"53.0547","PERIOD":"95.592","MEAN_MOTION_DDOT":"0.0000000000000","ECCENTRICITY":"0.00018470","OBJECT_TYPE":"PAYLOAD","LAUNCH_DATE":"2020-04-22","MEAN_ELEMENT_THEORY":"SGP4"},{"EPHEMERIS_TYPE":"0","RA_OF_ASC_NODE":"182.4258","TLE_LINE2":"2 45588  53.0529 182.4258 0001344  75.6021 284.5117 15.06399070116476","COUNTRY_CODE":"US","MEAN_MOTION_DOT":"-0.00000457","FILE":"3459268","REV_AT_EPOCH":"11647","RCS_SIZE":"LARGE","PERIAPSIS":"546.286","REF_FRAME":"TEME","CLASSIFICATION_TYPE":"U","INCLINATION":"53.0529","EPOCH":"2022-05-22T20:14:44.217312","ARG_OF_PERICENTER":"75.6021","MEAN_ELEMENT_THEORY":"SGP4","PERIOD":"95.592","ECCENTRICITY":"0.00013440","MEAN_MOTION_DDOT":"0.0000000000000","OBJECT_TYPE":"PAYLOAD","LAUNCH_DATE":"2020-04-22","TLE_LINE1":"1 45588U 20025BK  22142.84356733 -.00000457  00000-0 -11767-4 0  9993","SITE":"AFETR","CENTER_NAME":"EARTH","GP_ID":"204279254","OBJECT_ID":"2020-025BK","MEAN_ANOMALY":"284.5117","OBJECT_NAME":"STARLINK-1360","DECAY_DATE":null,"BSTAR":"-0.00001176700000","APOAPSIS":"548.147","ELEMENT_SET_NO":"999","SEMIMAJOR_AXIS":"6925.351","TIME_SYSTEM":"UTC","NORAD_CAT_ID":"45588","MEAN_MOTION":"15.06399070"},{"INCLINATION":"53.0533","EPOCH":"2022-05-22T20:09:25.682976","ARG_OF_PERICENTER":"41.3701","MEAN_ELEMENT_THEORY":"SGP4","PERIOD":"95.592","MEAN_MOTION_DDOT":"0.0000000000000","ECCENTRICITY":"0.00017000","OBJECT_TYPE":"PAYLOAD","LAUNCH_DATE":"2020-04-22","EPHEMERIS_TYPE":"0","RA_OF_ASC_NODE":"182.4308","TLE_LINE2":"2 45589  53.0533 182.4308 0001700  41.3701 318.7417 15.06399985116477","COUNTRY_CODE":"US","MEAN_MOTION_DOT":"0.00002796","FILE":"3459268","REV_AT_EPOCH":"11647","RCS_SIZE":"LARGE","REF_FRAME":"TEME","PERIAPSIS":"546.036","CLASSIFICATION_TYPE":"U","MEAN_ANOMALY":"318.7417","OBJECT_NAME":"STARLINK-1364","APOAPSIS":"548.391","DECAY_DATE":null,"BSTAR":"0.00020650000000","ELEMENT_SET_NO":"999","SEMIMAJOR_AXIS":"6925.349","TIME_SYSTEM":"UTC","NORAD_CAT_ID":"45589","MEAN_MOTION":"15.06399985","TLE_LINE1":"1 45589U 20025BL  22142.83988059  .00002796  00000-0  20650-3 0  9991","SITE":"AFETR","CENTER_NAME":"EARTH","GP_ID":"204278509","OBJECT_ID":"2020-025BL"},{"ARG_OF_PERICENTER":"54.0171","EPOCH":"2022-05-22T10:58:44.467104","INCLINATION":"53.0540","OBJECT_TYPE":"PAYLOAD","MEAN_MOTION_DDOT":"0.0000000000000","PERIOD":"95.592","ECCENTRICITY":"0.00015780","LAUNCH_DATE":"2020-04-22","MEAN_ELEMENT_THEORY":"SGP4","TLE_LINE2":"2 45590  53.0540 214.1559 0001578  54.0171 306.0964 15.06404059116019","COUNTRY_CODE":"US","RCS_SIZE":"LARGE","MEAN_MOTION_DOT":"0.00005571","FILE":"3458680","REV_AT_EPOCH":"11601","EPHEMERIS_TYPE":"0","RA_OF_ASC_NODE":"214.1559","CLASSIFICATION_TYPE":"U","PERIAPSIS":"546.108","REF_FRAME":"TEME","SEMIMAJOR_AXIS":"6925.336","ELEMENT_SET_NO":"999","DECAY_DATE":null,"BSTAR":"0.00039254000000","APOAPSIS":"548.294","OBJECT_NAME":"STARLINK-1365","MEAN_ANOMALY":"306.0964","MEAN_MOTION":"15.06404059","TIME_SYSTEM":"UTC","NORAD_CAT_ID":"45590","TLE_LINE1":"1 45590U 20025BM  22142.45745911  .00005571  00000-0  39254-3 0  9993","SITE":"AFETR","OBJECT_ID":"2020-025BM","CENTER_NAME":"EARTH","GP_ID":"204240371"},{"SEMIMAJOR_AXIS":"6925.348","ELEMENT_SET_NO":"999","APOAPSIS":"548.520","DECAY_DATE":null,"BSTAR":"0.00009522500000","OBJECT_NAME":"STARLINK-1441","MEAN_ANOMALY":"295.1467","MEAN_MOTION":"15.06400219","NORAD_CAT_ID":"45658","TIME_SYSTEM":"UTC","SITE":"AFETR","TLE_LINE1":"1 45658U 20035B   22142.36531753  .00001137  00000-0  95225-4 0  9991","OBJECT_ID":"2020-035B","GP_ID":"204239124","CENTER_NAME":"EARTH","ARG_OF_PERICENTER":"64.9718","EPOCH":"2022-05-22T08:46:03.434592","INCLINATION":"53.0548","LAUNCH_DATE":"2020-06-04","OBJECT_TYPE":"PAYLOAD","ECCENTRICITY":"0.00018880","PERIOD":"95.592","MEAN_MOTION_DDOT":"0.0000000000000","MEAN_ELEMENT_THEORY":"SGP4","RCS_SIZE":"LARGE","FILE":"3458680","MEAN_MOTION_DOT":"0.00001137","REV_AT_EPOCH":"10963","COUNTRY_CODE":"US","TLE_LINE2":"2 45658  53.0548 174.5552 0001888  64.9718 295.1467 15.06400219109635","RA_OF_ASC_NODE":"174.5552","EPHEMERIS_TYPE":"0","CLASSIFICATION_TYPE":"U","PERIAPSIS":"545.905","REF_FRAME":"TEME"},{"TLE_LINE2":"2 45659  53.0550 173.6655 0002032  49.4100 310.7066 15.06390694109654","COUNTRY_CODE":"US","MEAN_MOTION_DOT":"0.00000166","FILE":"3459268","REV_AT_EPOCH":"10965","RCS_SIZE":"LARGE","EPHEMERIS_TYPE":"0","RA_OF_ASC_NODE":"173.6655","CLASSIFICATION_TYPE":"U","PERIAPSIS":"545.835","REF_FRAME":"TEME","ARG_OF_PERICENTER":"49.4100","INCLINATION":"53.0550","EPOCH":"2022-05-22T13:36:37.735488","PERIOD":"95.593","ECCENTRICITY":"0.00020320","MEAN_MOTION_DDOT":"0.0000000000000","OBJECT_TYPE":"PAYLOAD","LAUNCH_DATE":"2020-06-04","MEAN_ELEMENT_THEORY":"SGP4","TLE_LINE1":"1 45659U 20035C   22142.56710342  .00000166  00000-0  30067-4 0  9991","SITE":"AFETR","OBJECT_ID":"2020-035C","CENTER_NAME":"EARTH","GP_ID":"204278764","ELEMENT_SET_NO":"999","SEMIMAJOR_AXIS":"6925.377","MEAN_ANOMALY":"310.7066","OBJECT_NAME":"STARLINK-1442","BSTAR":"0.00003006700000","DECAY_DATE":null,"APOAPSIS":"548.649","MEAN_MOTION":"15.06390694","TIME_SYSTEM":"UTC","NORAD_CAT_ID":"45659"},{"RA_OF_ASC_NODE":"172.7270","EPHEMERIS_TYPE":"0","FILE":"3459268","REV_AT_EPOCH":"10969","MEAN_MOTION_DOT":"0.00002897","RCS_SIZE":"LARGE","COUNTRY_CODE":"US","TLE_LINE2":"2 45660  53.0533 172.7270 0001949  45.1000 315.0147 15.06407928109699","PERIAPSIS":"545.840","REF_FRAME":"TEME","CLASSIFICATION_TYPE":"U","EPOCH":"2022-05-22T18:35:12.673536","INCLINATION":"53.0533","ARG_OF_PERICENTER":"45.1000","MEAN_ELEMENT_THEORY":"SGP4","LAUNCH_DATE":"2020-06-04","MEAN_MOTION_DDOT":"0.0000000000000","PERIOD":"95.592","ECCENTRICITY":"0.00019490","OBJECT_TYPE":"PAYLOAD","SITE":"AFETR","TLE_LINE1":"1 45660U 20035D   22142.77445224  .00002897  00000-0  21329-3 0  9993","GP_ID":"204279513","CENTER_NAME":"EARTH","OBJECT_ID":"2020-035D","MEAN_ANOMALY":"315.0147","OBJECT_NAME":"STARLINK-1443","BSTAR":"0.00021329000000","DECAY_DATE":null,"APOAPSIS":"548.539","ELEMENT_SET_NO":"999","SEMIMAJOR_AXIS":"6925.324","NORAD_CAT_ID":"45660","TIME_SYSTEM":"UTC","MEAN_MOTION":"15.06407928"},{"EPOCH":"2022-05-22T19:01:45.783264","INCLINATION":"53.0551","ARG_OF_PERICENTER":"59.0812","MEAN_ELEMENT_THEORY":"SGP4","LAUNCH_DATE":"2020-06-04","OBJECT_TYPE":"PAYLOAD","PERIOD":"95.593","MEAN_MOTION_DDOT":"0.0000000000000","ECCENTRICITY":"0.00016090","RA_OF_ASC_NODE":"172.6406","EPHEMERIS_TYPE":"0","RCS_SIZE":"LARGE","REV_AT_EPOCH":"10969","FILE":"3459268","MEAN_MOTION_DOT":"0.00000090","TLE_LINE2":"2 45661  53.0551 172.6406 0001609  59.0812 301.0335 15.06391785109695","COUNTRY_CODE":"US","PERIAPSIS":"546.124","REF_FRAME":"TEME","CLASSIFICATION_TYPE":"U","DECAY_DATE":null,"APOAPSIS":"548.353","BSTAR":"0.00002494900000","MEAN_ANOMALY":"301.0335","OBJECT_NAME":"STARLINK-1444","SEMIMAJOR_AXIS":"6925.374","ELEMENT_SET_NO":"999","NORAD_CAT_ID":"45661","TIME_SYSTEM":"UTC","MEAN_MOTION":"15.06391785","SITE":"AFETR","TLE_LINE1":"1 45661U 20035E   22142.79289101  .00000090  00000-0  24949-4 0  9991","GP_ID":"204279759","CENTER_NAME":"EARTH","OBJECT_ID":"2020-035E"}];
